ONEWEB-0583             
1 54650U 22166J   25362.29596728 -.00000088  00000+0 -24413-3 0  9997
2 54650  87.9224 278.0891 0001820  74.7982 285.3354 13.21827053148956
ONEWEB-0584             
1 54651U 22166K   25362.24001905  .00000018  00000+0  11163-4 0  9991
2 54651  87.9225 278.0872 0001897  86.1111 274.0240 13.21826328148933
ONEWEB-0585             
1 54652U 22166L   25362.26470653  .00000055  00000+0  10113-3 0  9998
2 54652  87.9227 278.0664 0001603  73.6465 286.4846 13.21826363148942
ONEWEB-0586             
1 54653U 22166M   25362.27787476  .00000241  00000+0  55310-3 0  9999
2 54653  87.9224 278.0893 0001871  77.1958 282.9385 13.21826045148943
ONEWEB-0587             
1 54654U 22166N   25362.28773468  .00000014  00000+0  28956-5 0  9993
2 54654  87.9237 278.0447 0001352  67.4201 292.7076 13.21827721149107
ONEWEB-0589             
1 54655U 22166P   25362.27456177  .00000034  00000+0  50653-4 0  9998
2 54655  87.9222 278.0801 0002340  91.3594 268.7808 13.21828747148963
ONEWEB-0590             
1 54656U 22166Q   25362.29911526  .00000009  00000+0 -95907-5 0  9990
2 54656  87.9224 278.0527 0001407  87.4682 272.6613 13.21827281148957
ONEWEB-0591             
1 54657U 22166R   25362.23508337  .00000074  00000+0  14820-3 0  9991
2 54657  87.9227 278.0889 0001735  79.6798 280.4531 13.21826405148972
ONEWEB-0592             
1 54658U 22166S   25362.23837297 -.00000001  00000+0 -32821-4 0  9996
2 54658  87.9236 278.0524 0001735  79.0516 281.0813 13.21826617148853
ONEWEB-0593             
1 54659U 22166T   25362.18569796  .00000106  00000+0  22538-3 0  9994
2 54659  87.9226 278.0884 0001860  75.4649 284.6691 13.21828720148959
ONEWEB-0594             
1 54660U 22166U   25362.20546346  .00000099  00000+0  20847-3 0  9997
2 54660  87.9227 278.1024 0001707  71.8874 288.2445 13.21826854148974
ONEWEB-0595             
1 54661U 22166V   25362.18242285  .00000077  00000+0  15437-3 0  9995
2 54661  87.9223 278.0796 0001539  72.8260 287.3043 13.21826375148948
ONEWEB-0596             
1 54662U 22166W   25362.30749081  .00000025  00000+0  29927-4 0  9999
2 54662  87.9226 278.0719 0001638  77.0261 283.1055 13.21826230148964
ONEWEB-0597             
1 54663U 22166X   25362.28938577  .00000065  00000+0  12480-3 0  9996
2 54663  87.9226 278.0804 0001796  77.9314 282.2021 13.21827257148966
ONEWEB-0600             
1 54664U 22166Y   25362.27128153  .00000099  00000+0  20780-3 0  9996
2 54664  87.9227 278.0750 0001868  74.3184 285.8156 13.21826650148935
ONEWEB-0601             
1 54665U 22166Z   25362.26305349  .00000070  00000+0  13720-3 0  9995
2 54665  87.9223 278.0942 0001957  82.0589 278.0767 13.21827086149127
ONEWEB-0602             
1 54666U 22166AA  25362.30337086 -.00000016  00000+0 -70361-4 0  9991
2 54666  87.9227 278.0907 0001998  70.3976 289.7374 13.21824401148971
