[{"OBJECT_NAME":"ONEWEB-0583","OBJECT_ID":"2022-166J","EPOCH":"2025-12-28T07:06:11.572992","MEAN_MOTION":13.21827053,"ECCENTRICITY":0.00018206,"INCLINATION":87.9224,"RA_OF_ASC_NODE":278.0891,"ARG_OF_PERICENTER":74.7982,"MEAN_ANOMALY":285.3354,"EPHEMERIS_TYPE":0,"CLASSIFICATION_TYPE":"U","NORAD_CAT_ID":54650,"ELEMENT_SET_NO":999,"REV_AT_EPOCH":14895,"BSTAR":-0.00024412565,"MEAN_MOTION_DOT":-8.8e-7,"MEAN_MOTION_DDOT":0},{"OBJECT_NAME":"ONEWEB-0584","OBJECT_ID":"2022-166K","EPOCH":"2025-12-28T05:45:37.645920","MEAN_MOTION":13.21826328,"ECCENTRICITY":0.00018971,"INCLINATION":87.9225,"RA_OF_ASC_NODE":278.0872,"ARG_OF_PERICENTER":86.1111,"MEAN_ANOMALY":274.024,"EPHEMERIS_TYPE":0,"CLASSIFICATION_TYPE":"U","NORAD_CAT_ID":54651,"ELEMENT_SET_NO":999,"REV_AT_EPOCH":14893,"BSTAR":1.1163483e-5,"MEAN_MOTION_DOT":1.8e-7,"MEAN_MOTION_DDOT":0},{"OBJECT_NAME":"ONEWEB-0585","OBJECT_ID":"2022-166L","EPOCH":"2025-12-28T06:21:10.644192","MEAN_MOTION":13.21826363,"ECCENTRICITY":0.00016037,"INCLINATION":87.9227,"RA_OF_ASC_NODE":278.0664,"ARG_OF_PERICENTER":73.6465,"MEAN_ANOMALY":286.4846,"EPHEMERIS_TYPE":0,"CLASSIFICATION_TYPE":"U","NORAD_CAT_ID":54652,"ELEMENT_SET_NO":999,"REV_AT_EPOCH":14894,"BSTAR":0.00010113412,"MEAN_MOTION_DOT":5.5e-7,"MEAN_MOTION_DDOT":0},{"OBJECT_NAME":"ONEWEB-0586","OBJECT_ID":"2022-166M","EPOCH":"2025-12-28T06:40:08.379264","MEAN_MOTION":13.21826045,"ECCENTRICITY":0.0001871,"INCLINATION":87.9224,"RA_OF_ASC_NODE":278.0893,"ARG_OF_PERICENTER":77.1958,"MEAN_ANOMALY":282.9385,"EPHEMERIS_TYPE":0,"CLASSIFICATION_TYPE":"U","NORAD_CAT_ID":54653,"ELEMENT_SET_NO":999,"REV_AT_EPOCH":14894,"BSTAR":0.00055309998,"MEAN_MOTION_DOT":2.41e-6,"MEAN_MOTION_DDOT":0},{"OBJECT_NAME":"ONEWEB-0587","OBJECT_ID":"2022-166N","EPOCH":"2025-12-28T06:54:20.276352","MEAN_MOTION":13.21827721,"ECCENTRICITY":0.00013524,"INCLINATION":87.9237,"RA_OF_ASC_NODE":278.0447,"ARG_OF_PERICENTER":67.4201,"MEAN_ANOMALY":292.7076,"EPHEMERIS_TYPE":0,"CLASSIFICATION_TYPE":"U","NORAD_CAT_ID":54654,"ELEMENT_SET_NO":999,"REV_AT_EPOCH":14910,"BSTAR":2.895632e-6,"MEAN_MOTION_DOT":1.4e-7,"MEAN_MOTION_DDOT":0},{"OBJECT_NAME":"ONEWEB-0589","OBJECT_ID":"2022-166P","EPOCH":"2025-12-28T06:35:22.136928","MEAN_MOTION":13.21828747,"ECCENTRICITY":0.00023403,"INCLINATION":87.9222,"RA_OF_ASC_NODE":278.0801,"ARG_OF_PERICENTER":91.3594,"MEAN_ANOMALY":268.7808,"EPHEMERIS_TYPE":0,"CLASSIFICATION_TYPE":"U","NORAD_CAT_ID":54655,"ELEMENT_SET_NO":999,"REV_AT_EPOCH":14896,"BSTAR":5.0652784e-5,"MEAN_MOTION_DOT":3.4e-7,"MEAN_MOTION_DDOT":0},{"OBJECT_NAME":"ONEWEB-0590","OBJECT_ID":"2022-166Q","EPOCH":"2025-12-28T07:10:43.558464","MEAN_MOTION":13.21827281,"ECCENTRICITY":0.00014075,"INCLINATION":87.9224,"RA_OF_ASC_NODE":278.0527,"ARG_OF_PERICENTER":87.4682,"MEAN_ANOMALY":272.6613,"EPHEMERIS_TYPE":0,"CLASSIFICATION_TYPE":"U","NORAD_CAT_ID":54656,"ELEMENT_SET_NO":999,"REV_AT_EPOCH":14895,"BSTAR":-9.59072e-6,"MEAN_MOTION_DOT":9.0e-8,"MEAN_MOTION_DDOT":0},{"OBJECT_NAME":"ONEWEB-0591","OBJECT_ID":"2022-166R","EPOCH":"2025-12-28T05:38:31.203168","MEAN_MOTION":13.21826405,"ECCENTRICITY":0.00017354,"INCLINATION":87.9227,"RA_OF_ASC_NODE":278.0889,"ARG_OF_PERICENTER":79.6798,"MEAN_ANOMALY":280.4531,"EPHEMERIS_TYPE":0,"CLASSIFICATION_TYPE":"U","NORAD_CAT_ID":54657,"ELEMENT_SET_NO":999,"REV_AT_EPOCH":14897,"BSTAR":0.00014820334,"MEAN_MOTION_DOT":7.4e-7,"MEAN_MOTION_DDOT":0},{"OBJECT_NAME":"ONEWEB-0592","OBJECT_ID":"2022-166S","EPOCH":"2025-12-28T05:43:15.424608","MEAN_MOTION":13.21826617,"ECCENTRICITY":0.0001735,"INCLINATION":87.9236,"RA_OF_ASC_NODE":278.0524,"ARG_OF_PERICENTER":79.0516,"MEAN_ANOMALY":281.0813,"EPHEMERIS_TYPE":0,"CLASSIFICATION_TYPE":"U","NORAD_CAT_ID":54658,"ELEMENT_SET_NO":999,"REV_AT_EPOCH":14885,"BSTAR":-3.2820672e-5,"MEAN_MOTION_DOT":-1.0e-8,"MEAN_MOTION_DDOT":0},{"OBJECT_NAME":"ONEWEB-0593","OBJECT_ID":"2022-166T","EPOCH":"2025-12-28T04:27:24.303744","MEAN_MOTION":13.2182872,"ECCENTRICITY":0.00018609,"INCLINATION":87.9226,"RA_OF_ASC_NODE":278.0884,"ARG_OF_PERICENTER":75.4649,"MEAN_ANOMALY":284.6691,"EPHEMERIS_TYPE":0,"CLASSIFICATION_TYPE":"U","NORAD_CAT_ID":54659,"ELEMENT_SET_NO":999,"REV_AT_EPOCH":14895,"BSTAR":0.0002253809,"MEAN_MOTION_DOT":1.06e-6,"MEAN_MOTION_DDOT":0},{"OBJECT_NAME":"ONEWEB-0594","OBJECT_ID":"2022-166U","EPOCH":"2025-12-28T04:55:52.042944","MEAN_MOTION":13.21826854,"ECCENTRICITY":0.0001707,"INCLINATION":87.9227,"RA_OF_ASC_NODE":278.1024,"ARG_OF_PERICENTER":71.8874,"MEAN_ANOMALY":288.2445,"EPHEMERIS_TYPE":0,"CLASSIFICATION_TYPE":"U","NORAD_CAT_ID":54660,"ELEMENT_SET_NO":999,"REV_AT_EPOCH":14897,"BSTAR":0.00020846591,"MEAN_MOTION_DOT":9.9e-7,"MEAN_MOTION_DDOT":0},{"OBJECT_NAME":"ONEWEB-0595","OBJECT_ID":"2022-166V","EPOCH":"2025-12-28T04:22:41.334240","MEAN_MOTION":13.21826375,"ECCENTRICITY":0.00015391,"INCLINATION":87.9223,"RA_OF_ASC_NODE":278.0796,"ARG_OF_PERICENTER":72.826,"MEAN_ANOMALY":287.3043,"EPHEMERIS_TYPE":0,"CLASSIFICATION_TYPE":"U","NORAD_CAT_ID":54661,"ELEMENT_SET_NO":999,"REV_AT_EPOCH":14894,"BSTAR":0.00015437236,"MEAN_MOTION_DOT":7.7e-7,"MEAN_MOTION_DDOT":0},{"OBJECT_NAME":"ONEWEB-0596","OBJECT_ID":"2022-166W","EPOCH":"2025-12-28T07:22:47.205984","MEAN_MOTION":13.2182623,"ECCENTRICITY":0.00016382,"INCLINATION":87.9226,"RA_OF_ASC_NODE":278.0719,"ARG_OF_PERICENTER":77.0261,"MEAN_ANOMALY":283.1055,"EPHEMERIS_TYPE":0,"CLASSIFICATION_TYPE":"U","NORAD_CAT_ID":54662,"ELEMENT_SET_NO":999,"REV_AT_EPOCH":14896,"BSTAR":2.9926621e-5,"MEAN_MOTION_DOT":2.5e-7,"MEAN_MOTION_DDOT":0},{"OBJECT_NAME":"ONEWEB-0597","OBJECT_ID":"2022-166X","EPOCH":"2025-12-28T06:56:42.930528","MEAN_MOTION":13.21827257,"ECCENTRICITY":0.00017963,"INCLINATION":87.9226,"RA_OF_ASC_NODE":278.0804,"ARG_OF_PERICENTER":77.9314,"MEAN_ANOMALY":282.2021,"EPHEMERIS_TYPE":0,"CLASSIFICATION_TYPE":"U","NORAD_CAT_ID":54663,"ELEMENT_SET_NO":999,"REV_AT_EPOCH":14896,"BSTAR":0.00012479974,"MEAN_MOTION_DOT":6.5e-7,"MEAN_MOTION_DDOT":0},{"OBJECT_NAME":"ONEWEB-0600","OBJECT_ID":"2022-166Y","EPOCH":"2025-12-28T06:30:38.724192","MEAN_MOTION":13.2182665,"ECCENTRICITY":0.00018685,"INCLINATION":87.9227,"RA_OF_ASC_NODE":278.075,"ARG_OF_PERICENTER":74.3184,"MEAN_ANOMALY":285.8156,"EPHEMERIS_TYPE":0,"CLASSIFICATION_TYPE":"U","NORAD_CAT_ID":54664,"ELEMENT_SET_NO":999,"REV_AT_EPOCH":14893,"BSTAR":0.00020779849,"MEAN_MOTION_DOT":9.9e-7,"MEAN_MOTION_DDOT":0},{"OBJECT_NAME":"ONEWEB-0601","OBJECT_ID":"2022-166Z","EPOCH":"2025-12-28T06:18:47.821536","MEAN_MOTION":13.21827086,"ECCENTRICITY":0.00019573,"INCLINATION":87.9223,"RA_OF_ASC_NODE":278.0942,"ARG_OF_PERICENTER":82.0589,"MEAN_ANOMALY":278.0767,"EPHEMERIS_TYPE":0,"CLASSIFICATION_TYPE":"U","NORAD_CAT_ID":54665,"ELEMENT_SET_NO":999,"REV_AT_EPOCH":14912,"BSTAR":0.00013720167,"MEAN_MOTION_DOT":7.0e-7,"MEAN_MOTION_DDOT":0},{"OBJECT_NAME":"ONEWEB-0602","OBJECT_ID":"2022-166AA","EPOCH":"2025-12-28T07:16:51.242304","MEAN_MOTION":13.21824401,"ECCENTRICITY":0.00019988,"INCLINATION":87.9227,"RA_OF_ASC_NODE":278.0907,"ARG_OF_PERICENTER":70.3976,"MEAN_ANOMALY":289.7374,"EPHEMERIS_TYPE":0,"CLASSIFICATION_TYPE":"U","NORAD_CAT_ID":54666,"ELEMENT_SET_NO":999,"REV_AT_EPOCH":14897,"BSTAR":-7.0361013e-5,"MEAN_MOTION_DOT":-1.6e-7,"MEAN_MOTION_DDOT":0}]
